[{"OBJECT_NAME":"PROTOMETHEE","OBJECT_ID":"2023-174BT","EPOCH":"2026-03-09T23:28:08.029344","MEAN_MOTION":15.30202663,"ECCENTRICITY":0.00088339,"INCLINATION":97.3826,"RA_OF_ASC_NODE":147.9552,"ARG_OF_PERICENTER":148.5993,"MEAN_ANOMALY":211.5776,"EPHEMERIS_TYPE":0,"CLASSIFICATION_TYPE":"U","NORAD_CAT_ID":58321,"ELEMENT_SET_NO":999,"REV_AT_EPOCH":12979,"BSTAR":0.00015715731,"MEAN_MOTION_DOT":4.52e-5,"MEAN_MOTION_DDOT":0},{"OBJECT_NAME":"STARLINK-35143","OBJECT_ID":"2025-195AD","EPOCH":"2026-03-09T22:06:52.919712","MEAN_MOTION":15.30187095,"ECCENTRICITY":0.00010298,"INCLINATION":53.1596,"RA_OF_ASC_NODE":256.7631,"ARG_OF_PERICENTER":81.0421,"MEAN_ANOMALY":279.0696,"EPHEMERIS_TYPE":0,"CLASSIFICATION_TYPE":"U","NORAD_CAT_ID":65485,"ELEMENT_SET_NO":999,"REV_AT_EPOCH":3001,"BSTAR":0.0005235435,"MEAN_MOTION_DOT":0.00015172,"MEAN_MOTION_DDOT":0}]
